STARLINK-37275          
1 68725U 26081AC  26113.57459948 -.00720794  00000+0 -28467-2 0  9998
2 68725  53.1590 195.7958 0000878  71.5633 288.5488 15.87743556  1471
