{
  "norad_id": 68725,
  "name": "STARLINK-37275",
  "history": [
    {
      "epoch": "2026-04-23T13:47:25.395072Z",
      "apogee_km": 309.19824094347587,
      "perigee_km": 308.0231119068203,
      "latitude_deg": -9.016148833538164e-06,
      "longitude_deg": 137.32010795650908,
      "height_km": 309.34572625418906,
      "semi_major_axis_km": 6686.747676425148,
      "eccentricity": 8.787e-05,
      "inclination_deg": 53.159,
      "raan_deg": 195.7958,
      "arg_perigee_deg": 71.5633,
      "mean_anomaly_deg": 288.5488,
      "mean_motion_rev_day": 15.87743556
    }
  ]
}